{"type":"FeatureCollection","generator":"overpass-turbo","copyright":"The data included in this document is from www.openstreetmap.org. The data is made available under ODbL.","timestamp":"2015-08-19T14:44:01Z","features":[{"type":"Feature","id":"node/26036352","properties":{"name:en":"Philippines"},"geometry":{"type":"Point","coordinates":[122.7312101,12.7503486]}},{"type":"Feature","id":"node/26347360","properties":{"name:en":"Italy"},"geometry":{"type":"Point","coordinates":[12.674297,42.6384261]}},{"type":"Feature","id":"node/26847706","properties":{"name:en":"Afghanistan"},"geometry":{"type":"Point","coordinates":[64.9998468,33.0000866]}},{"type":"Feature","id":"node/26847709","properties":{"name:en":"Austria"},"geometry":{"type":"Point","coordinates":[13.199959,47.2000338]}},{"type":"Feature","id":"node/26847717","properties":{"name:en":"Australia"},"geometry":{"type":"Point","coordinates":[133,-27]}},{"type":"Feature","id":"node/148332300","properties":{"name:en":"Spain"},"geometry":{"type":"Point","coordinates":[-4.003104,40.0028028]}},{"type":"Feature","id":"node/148874198","properties":{"name:en":"Andorra"},"geometry":{"type":"Point","coordinates":[1.5732033,42.5407167]}},{"type":"Feature","id":"node/208592566","properties":{"name:en":"Slovenia"},"geometry":{"type":"Point","coordinates":[14.4808369,45.8133113]}},{"type":"Feature","id":"node/246422158","properties":{"name:en":"Dominican Republic"},"geometry":{"type":"Point","coordinates":[-70.3028026,19.0974031]}},{"type":"Feature","id":"node/248120384","properties":{"name:en":"New Zealand"},"geometry":{"type":"Point","coordinates":[172.8344077,-41.5000831]}},{"type":"Feature","id":"node/249399277","properties":{"name:en":"Armenia"},"geometry":{"type":"Point","coordinates":[44.6736646,40.7696272]}},{"type":"Feature","id":"node/249399280","properties":{"name:en":"Argentina"},"geometry":{"type":"Point","coordinates":[-65.2699754,-35.0039032]}},{"type":"Feature","id":"node/249399285","properties":{"name:en":"Barbados"},"geometry":{"type":"Point","coordinates":[-59.5250305,13.1500331]}},{"type":"Feature","id":"node/249399288","properties":{"name:en":"Burkina Faso"},"geometry":{"type":"Point","coordinates":[-1.6880314,12.0753083]}},{"type":"Feature","id":"node/249399296","properties":{"name:en":"Bahamas"},"geometry":{"type":"Point","coordinates":[-78.0000547,24.7736546]}},{"type":"Feature","id":"node/249399300","properties":{"name:en":"Belarus"},"geometry":{"type":"Point","coordinates":[27.6971358,53.4250605]}},{"type":"Feature","id":"node/249399308","properties":{"name:en":"Cook Islands"},"geometry":{"type":"Point","coordinates":[-160.3554851,-16.0492781]}},{"type":"Feature","id":"node/249399313","properties":{"name:en":"Cuba"},"geometry":{"type":"Point","coordinates":[-80.8328748,23.0131338]}},{"type":"Feature","id":"node/249399339","properties":{"name:en":"South Georgia and South Sandwich Islands"},"geometry":{"type":"Point","coordinates":[-35.8090698,-54.8432857]}},{"type":"Feature","id":"node/249399347","properties":{"name:en":"Hungary"},"geometry":{"type":"Point","coordinates":[19.5060937,47.1817585]}},{"type":"Feature","id":"node/249399360","properties":{"name:en":"Comoros"},"geometry":{"type":"Point","coordinates":[44.2832964,-12.2045176]}},{"type":"Feature","id":"node/249399361","properties":{"name:en":"North Korea"},"geometry":{"type":"Point","coordinates":[127.399971,40.3123959]}},{"type":"Feature","id":"node/249399362","properties":{"name:en":"South Korea"},"geometry":{"type":"Point","coordinates":[127.937111,35.3985008]}},{"type":"Feature","id":"node/249399364","properties":{"name:en":"Cayman Islands"},"geometry":{"type":"Point","coordinates":[-80.5667132,19.5417212]}},{"type":"Feature","id":"node/249399394","properties":{"name:en":"Malaysia"},"geometry":{"type":"Point","coordinates":[102.2656823,4.5693754]}},{"type":"Feature","id":"node/249399402","properties":{"name:en":"Nepal"},"geometry":{"type":"Point","coordinates":[84.0917515,28.1082107]}},{"type":"Feature","id":"node/249399406","properties":{"name:en":"Peru"},"geometry":{"type":"Point","coordinates":[-75.0458515,-6.8699697]}},{"type":"Feature","id":"node/249399419","properties":{"name:en":"Saudi Arabia"},"geometry":{"type":"Point","coordinates":[42.3528328,25.6242618]}},{"type":"Feature","id":"node/249399429","properties":{"name:en":"São Tomé and Príncipe"},"geometry":{"type":"Point","coordinates":[6.9648718,0.8875498]}},{"type":"Feature","id":"node/249399440","properties":{"name:en":"Turkmenistan"},"geometry":{"type":"Point","coordinates":[59.3924609,39.3763807]}},{"type":"Feature","id":"node/249399444","properties":{"name:en":"Trinidad and Tobago"},"geometry":{"type":"Point","coordinates":[-60.9821067,10.8677845]}},{"type":"Feature","id":"node/249399459","properties":{"name:en":"Yemen"},"geometry":{"type":"Point","coordinates":[47.8915271,16.3471243]}},{"type":"Feature","id":"node/271048940","properties":{"name:en":"Sint Maarten"},"geometry":{"type":"Point","coordinates":[-63.0549948,18.0423736]}},{"type":"Feature","id":"node/332779764","properties":{"name:en":"Belize"},"geometry":{"type":"Point","coordinates":[-88.7600927,16.8259793]}},{"type":"Feature","id":"node/369137525","properties":{"name:en":"Serbia"},"geometry":{"type":"Point","coordinates":[20.55144,44.1534121]}},{"type":"Feature","id":"node/424297198","properties":{"name:en":"Norway"},"geometry":{"type":"Point","coordinates":[9.0999715,60.5000209]}},{"type":"Feature","id":"node/424297207","properties":{"name:en":"Bahrain"},"geometry":{"type":"Point","coordinates":[50.5344606,26.1551249]}},{"type":"Feature","id":"node/424297217","properties":{"name:en":"The Netherlands"},"geometry":{"type":"Point","coordinates":[5.7480821,52.5001698]}},{"type":"Feature","id":"node/424297281","properties":{"name:en":"Haiti"},"geometry":{"type":"Point","coordinates":[-72.3570972,19.1399952]}},{"type":"Feature","id":"node/424297384","properties":{"name:en":"Benin"},"geometry":{"type":"Point","coordinates":[2.2584408,9.5293472]}},{"type":"Feature","id":"node/424297465","properties":{"name:en":"Costa Rica"},"geometry":{"type":"Point","coordinates":[-84.0739102,10.2735633]}},{"type":"Feature","id":"node/424297496","properties":{"name:en":"Dominica"},"geometry":{"type":"Point","coordinates":[-61.3653618,15.4113138]}},{"type":"Feature","id":"node/424297579","properties":{"name:en":"Gambia"},"geometry":{"type":"Point","coordinates":[-15.4900464,13.470062]}},{"type":"Feature","id":"node/424297586","properties":{"name:en":"Guinea"},"geometry":{"type":"Point","coordinates":[-10.7083587,10.7226226]}},{"type":"Feature","id":"node/424297609","properties":{"name:en":"Guinea-Bissau"},"geometry":{"type":"Point","coordinates":[-14.9000214,12.100035]}},{"type":"Feature","id":"node/424297629","properties":{"name:en":"Honduras"},"geometry":{"type":"Point","coordinates":[-84.5978534,15.0610686]}},{"type":"Feature","id":"node/424297647","properties":{"name:en":"Israel"},"geometry":{"type":"Point","coordinates":[35.0015196,30.8760272]}},{"type":"Feature","id":"node/424297742","properties":{"name:en":"Lebanon"},"geometry":{"type":"Point","coordinates":[35.843409,33.8750629]}},{"type":"Feature","id":"node/424297773","properties":{"name:en":"Lithuania"},"geometry":{"type":"Point","coordinates":[23.7499998,55.3500003]}},{"type":"Feature","id":"node/424297810","properties":{"name:en":"Macedonia"},"geometry":{"type":"Point","coordinates":[21.7168387,41.6171214]}},{"type":"Feature","id":"node/424297816","properties":{"name:en":"Mali"},"geometry":{"type":"Point","coordinates":[-2.2900239,16.3700359]}},{"type":"Feature","id":"node/424297917","properties":{"name:en":"Nauru"},"geometry":{"type":"Point","coordinates":[166.9333009,-0.5249624]}},{"type":"Feature","id":"node/424297931","properties":{"name:en":"Papua New Guinea"},"geometry":{"type":"Point","coordinates":[144.2489081,-5.6816069]}},{"type":"Feature","id":"node/424297973","properties":{"name:en":"Sudan"},"geometry":{"type":"Point","coordinates":[29.4917691,14.5844444]}},{"type":"Feature","id":"node/424298019","properties":{"name:en":"Luxembourg"},"geometry":{"type":"Point","coordinates":[6.1296751,49.8158683]}},{"type":"Feature","id":"node/424298076","properties":{"name:en":"Chad"},"geometry":{"type":"Point","coordinates":[19.0156172,15.6134137]}},{"type":"Feature","id":"node/424298150","properties":{"name:en":"Vietnam"},"geometry":{"type":"Point","coordinates":[108.4265113,13.2904027]}},{"type":"Feature","id":"node/424298167","properties":{"name:en":"South Africa"},"geometry":{"type":"Point","coordinates":[24.991639,-28.8166236]}},{"type":"Feature","id":"node/424298227","properties":{"name:en":"Ecuador"},"geometry":{"type":"Point","coordinates":[-79.3666965,-1.3397668]}},{"type":"Feature","id":"node/424298277","properties":{"name:en":"Seychelles"},"geometry":{"type":"Point","coordinates":[55.4540146,-4.6574977]}},{"type":"Feature","id":"node/424298311","properties":{"name:en":"Iran"},"geometry":{"type":"Point","coordinates":[52.9471344,32.9407496]}},{"type":"Feature","id":"node/424298326","properties":{"name:en":"Turkey"},"geometry":{"type":"Point","coordinates":[34.9249653,38.9597594]}},{"type":"Feature","id":"node/424310601","properties":{"name:en":"Albania"},"geometry":{"type":"Point","coordinates":[19.9999619,41.000028]}},{"type":"Feature","id":"node/424310680","properties":{"name:en":"Swaziland"},"geometry":{"type":"Point","coordinates":[31.3991317,-26.5624806]}},{"type":"Feature","id":"node/424310703","properties":{"name:en":"United Arab Emirates"},"geometry":{"type":"Point","coordinates":[53.9994829,24.0002488]}},{"type":"Feature","id":"node/424310758","properties":{"name:en":"Saint Kitts and Nevis"},"geometry":{"type":"Point","coordinates":[-62.7687277,17.3462278]}},{"type":"Feature","id":"node/424310875","properties":{"name:en":"Angola"},"geometry":{"type":"Point","coordinates":[17.5691241,-11.8775768]}},{"type":"Feature","id":"node/424310982","properties":{"name:en":"Burundi"},"geometry":{"type":"Point","coordinates":[29.8870575,-3.3634357]}},{"type":"Feature","id":"node/424311028","properties":{"name:en":"Bhutan"},"geometry":{"type":"Point","coordinates":[90.5119273,27.549511]}},{"type":"Feature","id":"node/424311104","properties":{"name:en":"Chile"},"geometry":{"type":"Point","coordinates":[-71.3187697,-31.7613365]}},{"type":"Feature","id":"node/424311151","properties":{"name:en":"Cabo Verde"},"geometry":{"type":"Point","coordinates":[-24.0083947,16.0000552]}},{"type":"Feature","id":"node/424311237","properties":{"name:en":"Falkland Islands"},"geometry":{"type":"Point","coordinates":[-59.5500387,-51.9666424]}},{"type":"Feature","id":"node/424311244","properties":{"name:en":"Federated States of Micronesia"},"geometry":{"type":"Point","coordinates":[150.1982846,5.5600565]}},{"type":"Feature","id":"node/424311252","properties":{"name:en":"Gabon"},"geometry":{"type":"Point","coordinates":[11.6899699,-0.8999695]}},{"type":"Feature","id":"node/424311328","properties":{"name:en":"Guyana"},"geometry":{"type":"Point","coordinates":[-58.6416891,4.8417097]}},{"type":"Feature","id":"node/424311353","properties":{"name:en":"Croatia"},"geometry":{"type":"Point","coordinates":[17.0118954,45.5643442]}},{"type":"Feature","id":"node/424311521","properties":{"name:en":"Kazakhstan"},"geometry":{"type":"Point","coordinates":[65.2093197,47.2286086]}},{"type":"Feature","id":"node/424311573","properties":{"name:en":"Liberia"},"geometry":{"type":"Point","coordinates":[-9.3658524,5.7499721]}},{"type":"Feature","id":"node/424311641","properties":{"name:en":"Maldives"},"geometry":{"type":"Point","coordinates":[73.4867968,4.2218417]}},{"type":"Feature","id":"node/424311645","properties":{"name:en":"Malawi"},"geometry":{"type":"Point","coordinates":[33.9301963,-13.2687204]}},{"type":"Feature","id":"node/424311658","properties":{"name:en":"Mozambique"},"geometry":{"type":"Point","coordinates":[34.9144977,-19.302233]}},{"type":"Feature","id":"node/424311662","properties":{"name:en":"Namibia"},"geometry":{"type":"Point","coordinates":[17.3231107,-23.2335499]}},{"type":"Feature","id":"node/424311675","properties":{"name:en":"Niger"},"geometry":{"type":"Point","coordinates":[9.3238432,17.7356214]}},{"type":"Feature","id":"node/424311679","properties":{"name:en":"Norfolk Island"},"geometry":{"type":"Point","coordinates":[167.9483137,-29.0328038]}},{"type":"Feature","id":"node/424311738","properties":{"name:en":"Rwanda"},"geometry":{"type":"Point","coordinates":[30.0644358,-1.9646631]}},{"type":"Feature","id":"node/424311802","properties":{"name:en":"El Salvador"},"geometry":{"type":"Point","coordinates":[-88.9140683,13.8000382]}},{"type":"Feature","id":"node/424311806","properties":{"name:en":"Syria"},"geometry":{"type":"Point","coordinates":[39.0494106,34.6401861]}},{"type":"Feature","id":"node/424311814","properties":{"name:en":"Turks and Caicos Islands"},"geometry":{"type":"Point","coordinates":[-71.6201783,21.7214683]}},{"type":"Feature","id":"node/424311827","properties":{"name:en":"Togo"},"geometry":{"type":"Point","coordinates":[1.0199765,8.7800265]}},{"type":"Feature","id":"node/424311848","properties":{"name:en":"Tonga"},"geometry":{"type":"Point","coordinates":[-175.2026424,-19.9160819]}},{"type":"Feature","id":"node/424311883","properties":{"name:en":"Vatican City"},"geometry":{"type":"Point","coordinates":[12.4528349,41.9034912]}},{"type":"Feature","id":"node/424311890","properties":{"name:en":"Venezuela"},"geometry":{"type":"Point","coordinates":[-66.1109318,8.0018709]}},{"type":"Feature","id":"node/424311891","properties":{"name:en":"British Virgin Islands"},"geometry":{"type":"Point","coordinates":[-64.5661642,18.4024395]}},{"type":"Feature","id":"node/424311942","properties":{"name:en":"Indonesia"},"geometry":{"type":"Point","coordinates":[114.5632032,-4.7993356]}},{"type":"Feature","id":"node/424311955","properties":{"name:en":"Marshall Islands"},"geometry":{"type":"Point","coordinates":[170.9985095,6.9518742]}},{"type":"Feature","id":"node/424312026","properties":{"name:en":"Greenland"},"geometry":{"type":"Point","coordinates":[-42.8125967,77.6192349]}},{"type":"Feature","id":"node/424312044","properties":{"name:en":"Faroe Islands"},"geometry":{"type":"Point","coordinates":[-7.0322972,62.0448724]}},{"type":"Feature","id":"node/424313277","properties":{"name:en":"Sweden"},"geometry":{"type":"Point","coordinates":[14.5208584,59.6749712]}},{"type":"Feature","id":"node/424313406","properties":{"name:en":"Cyprus"},"geometry":{"type":"Point","coordinates":[33.1451285,34.9823018]}},{"type":"Feature","id":"node/424313428","properties":{"name:en":"Singapore"},"geometry":{"type":"Point","coordinates":[103.8194992,1.357107]}},{"type":"Feature","id":"node/424313451","properties":{"name:en":"Japan"},"geometry":{"type":"Point","coordinates":[139.2394179,36.5748441]}},{"type":"Feature","id":"node/424313466","properties":{"name:en":"Vanuatu"},"geometry":{"type":"Point","coordinates":[168.1069154,-16.5255069]}},{"type":"Feature","id":"node/424313582","properties":{"name:en":"People's Republic of China"},"geometry":{"type":"Point","coordinates":[104.999927,35.000074]}},{"type":"Feature","id":"node/424313591","properties":{"name:en":"Jamaica"},"geometry":{"type":"Point","coordinates":[-77.3947693,18.1850507]}},{"type":"Feature","id":"node/424313675","properties":{"name:en":"Azerbaijan"},"geometry":{"type":"Point","coordinates":[47.8207429,40.1636668]}},{"type":"Feature","id":"node/424313730","properties":{"name:en":"Bolivia"},"geometry":{"type":"Point","coordinates":[-64.9912286,-17.0568696]}},{"type":"Feature","id":"node/424313734","properties":{"name:en":"Brazil"},"geometry":{"type":"Point","coordinates":[-53.2,-10.3333333]}},{"type":"Feature","id":"node/424313751","properties":{"name:en":"Botswana"},"geometry":{"type":"Point","coordinates":[24.5928742,-23.1681782]}},{"type":"Feature","id":"node/424313760","properties":{"name:en":"Canada"},"geometry":{"type":"Point","coordinates":[-107.9917071,61.0666922]}},{"type":"Feature","id":"node/424313803","properties":{"name:en":"Czech Republic"},"geometry":{"type":"Point","coordinates":[15.4749544,49.8167003]}},{"type":"Feature","id":"node/424313823","properties":{"name:en":"Fiji"},"geometry":{"type":"Point","coordinates":[179.0122737,-18.1239696]}},{"type":"Feature","id":"node/424313832","properties":{"name:en":"Estonia"},"geometry":{"type":"Point","coordinates":[25.3319078,58.7523778]}},{"type":"Feature","id":"node/424313836","properties":{"name:en":"Ghana"},"geometry":{"type":"Point","coordinates":[-1.0800271,8.0300284]}},{"type":"Feature","id":"node/424313853","properties":{"name:en":"Equatorial Guinea"},"geometry":{"type":"Point","coordinates":[10.5170357,1.613172]}},{"type":"Feature","id":"node/424313891","properties":{"name:en":"British Indian Ocean Territory"},"geometry":{"type":"Point","coordinates":[72.1173961,-6.4157192]}},{"type":"Feature","id":"node/424313903","properties":{"name:en":"Kenya"},"geometry":{"type":"Point","coordinates":[38.4313975,1.4419683]}},{"type":"Feature","id":"node/424313936","properties":{"name:en":"Kuwait"},"geometry":{"type":"Point","coordinates":[47.4979476,29.2733964]}},{"type":"Feature","id":"node/424314005","properties":{"name:en":"Montserrat"},"geometry":{"type":"Point","coordinates":[-62.1916844,16.7417041]}},{"type":"Feature","id":"node/424314088","properties":{"name:en":"Pakistan"},"geometry":{"type":"Point","coordinates":[71.247499,30.3308401]}},{"type":"Feature","id":"node/424314123","properties":{"name:en":"Sierra Leone"},"geometry":{"type":"Point","coordinates":[-11.8400269,8.6400349]}},{"type":"Feature","id":"node/424314145","properties":{"name:en":"India"},"geometry":{"type":"Point","coordinates":[78.6677428,22.3511148]}},{"type":"Feature","id":"node/424314276","properties":{"name:en":"Tajikistan"},"geometry":{"type":"Point","coordinates":[70.8156541,38.6281733]}},{"type":"Feature","id":"node/424314335","properties":{"name:en":"Tanzania"},"geometry":{"type":"Point","coordinates":[35.7878438,-6.5247123]}},{"type":"Feature","id":"node/424314631","properties":{"name:en":"Colombia"},"geometry":{"type":"Point","coordinates":[-73.7845072,2.8930783]}},{"type":"Feature","id":"node/424314691","properties":{"name:en":"Ivory Coast"},"geometry":{"type":"Point","coordinates":[-5.5679458,7.9897371]}},{"type":"Feature","id":"node/424314784","properties":{"name:en":"Iceland"},"geometry":{"type":"Point","coordinates":[-18.1059013,64.9841821]}},{"type":"Feature","id":"node/424314830","properties":{"name:en":"Russia"},"geometry":{"type":"Point","coordinates":[97.7453061,64.6863136]}},{"type":"Feature","id":"node/424315291","properties":{"name:en":"Oman"},"geometry":{"type":"Point","coordinates":[57.0036901,21.0000287]}},{"type":"Feature","id":"node/424315584","properties":{"name:en":"Australia"},"geometry":{"type":"Point","coordinates":[134.755,-24.7761086]}},{"type":"Feature","id":"node/424315709","properties":{"name:en":"Bulgaria"},"geometry":{"type":"Point","coordinates":[25.4856617,42.6073975]}},{"type":"Feature","id":"node/424315932","properties":{"name:en":"Cameroon"},"geometry":{"type":"Point","coordinates":[13.1535811,4.6125522]}},{"type":"Feature","id":"node/424316018","properties":{"name:en":"Egypt"},"geometry":{"type":"Point","coordinates":[29.2675469,26.2540493]}},{"type":"Feature","id":"node/424316022","properties":{"name:en":"Eritrea"},"geometry":{"type":"Point","coordinates":[37.9999668,15.9500319]}},{"type":"Feature","id":"node/424316074","properties":{"name:en":"Grenada"},"geometry":{"type":"Point","coordinates":[-61.6904045,12.1360374]}},{"type":"Feature","id":"node/424316205","properties":{"name:en":"Iraq"},"geometry":{"type":"Point","coordinates":[44.1749775,33.0955793]}},{"type":"Feature","id":"node/424316216","properties":{"name:en":"Jordan"},"geometry":{"type":"Point","coordinates":[36.941628,31.1667049]}},{"type":"Feature","id":"node/424316307","properties":{"name:en":"Laos"},"geometry":{"type":"Point","coordinates":[103.378253,20.0171109]}},{"type":"Feature","id":"node/424316319","properties":{"name:en":"Saint Lucia"},"geometry":{"type":"Point","coordinates":[-60.975036,13.8250489]}},{"type":"Feature","id":"node/424316417","properties":{"name:en":"Moldova"},"geometry":{"type":"Point","coordinates":[28.5110236,47.286747]}},{"type":"Feature","id":"node/424316478","properties":{"name:en":"Myanmar"},"geometry":{"type":"Point","coordinates":[95.9999652,17.1750495]}},{"type":"Feature","id":"node/424316493","properties":{"name:en":"Mauritania"},"geometry":{"type":"Point","coordinates":[-9.2399263,20.2540382]}},{"type":"Feature","id":"node/424316663","properties":{"name:en":"Nigeria"},"geometry":{"type":"Point","coordinates":[7.9999721,9.6000359]}},{"type":"Feature","id":"node/424316671","properties":{"name:en":"Nicaragua"},"geometry":{"type":"Point","coordinates":[-84.8700308,12.3724928]}},{"type":"Feature","id":"node/424316758","properties":{"name:en":"Panama"},"geometry":{"type":"Point","coordinates":[-81.3066246,8.3096067]}},{"type":"Feature","id":"node/424317025","properties":{"name:en":"San Marino"},"geometry":{"type":"Point","coordinates":[12.458306,43.9458623]}},{"type":"Feature","id":"node/424317039","properties":{"name:en":"Somalia"},"geometry":{"type":"Point","coordinates":[49.083416,8.3676771]}},{"type":"Feature","id":"node/424317315","properties":{"name:en":"Tunisia"},"geometry":{"type":"Point","coordinates":[9.400138,33.8439408]}},{"type":"Feature","id":"node/424317372","properties":{"name:en":"Tuvalu"},"geometry":{"type":"Point","coordinates":[178.1167698,-7.768959]}},{"type":"Feature","id":"node/424317406","properties":{"name:en":"Uganda"},"geometry":{"type":"Point","coordinates":[32.2166578,1.5333554]}},{"type":"Feature","id":"node/424317428","properties":{"name:en":"Uzbekistan"},"geometry":{"type":"Point","coordinates":[63.9528098,41.32373]}},{"type":"Feature","id":"node/424317935","properties":{"name:en":"United States of America"},"geometry":{"type":"Point","coordinates":[-100.4458825,39.7837304]}},{"type":"Feature","id":"node/432424926","properties":{"name:en":"Algeria"},"geometry":{"type":"Point","coordinates":[2.9999825,28.0000272]}},{"type":"Feature","id":"node/432424929","properties":{"name:en":"Antigua and Barbuda"},"geometry":{"type":"Point","coordinates":[-61.8222516,17.079128]}},{"type":"Feature","id":"node/432424937","properties":{"name:en":"Bangladesh"},"geometry":{"type":"Point","coordinates":[90.2932426,24.4768783]}},{"type":"Feature","id":"node/432424952","properties":{"name:en":"Cambodia"},"geometry":{"type":"Point","coordinates":[104.869423,13.5066394]}},{"type":"Feature","id":"node/432424956","properties":{"name:en":"Central African Republic"},"geometry":{"type":"Point","coordinates":[19.9981227,7.0323598]}},{"type":"Feature","id":"node/432424968","properties":{"name:en":"Denmark"},"geometry":{"type":"Point","coordinates":[10.3333283,55.670249]}},{"type":"Feature","id":"node/432424972","properties":{"name:en":"East Timor"},"geometry":{"type":"Point","coordinates":[125.8375756,-8.5151979]}},{"type":"Feature","id":"node/432424981","properties":{"name:en":"Finland"},"geometry":{"type":"Point","coordinates":[25.9209164,63.2467777]}},{"type":"Feature","id":"node/432424985","properties":{"name:en":"Georgia"},"geometry":{"type":"Point","coordinates":[44.0287382,41.6809707]}},{"type":"Feature","id":"node/432424989","properties":{"name:en":"Greece"},"geometry":{"type":"Point","coordinates":[21.9999569,39.000041]}},{"type":"Feature","id":"node/432425015","properties":{"name:en":"Kiribati"},"geometry":{"type":"Point","coordinates":[-171.6645388,0.4483283]}},{"type":"Feature","id":"node/432425019","properties":{"name:en":"Latvia"},"geometry":{"type":"Point","coordinates":[24.5999717,56.8666904]}},{"type":"Feature","id":"node/432425023","properties":{"name:en":"Libya"},"geometry":{"type":"Point","coordinates":[18.1236723,26.8234472]}},{"type":"Feature","id":"node/432425028","properties":{"name:en":"Madagascar"},"geometry":{"type":"Point","coordinates":[46.4416422,-18.9249604]}},{"type":"Feature","id":"node/432425036","properties":{"name:en":"Mexico"},"geometry":{"type":"Point","coordinates":[-100.0000375,22.5000485]}},{"type":"Feature","id":"node/432425040","properties":{"name:en":"Mongolia"},"geometry":{"type":"Point","coordinates":[103.8499736,46.8250388]}},{"type":"Feature","id":"node/432425041","properties":{"name:en":"Morocco"},"geometry":{"type":"Point","coordinates":[-7.3366043,31.1728192]}},{"type":"Feature","id":"node/432425060","properties":{"name:en":"Poland"},"geometry":{"type":"Point","coordinates":[19.0258159,52.0977181]}},{"type":"Feature","id":"node/432425062","properties":{"name:en":"Qatar"},"geometry":{"type":"Point","coordinates":[51.2295295,25.3336984]}},{"type":"Feature","id":"node/432425063","properties":{"name:en":"Republic of the Congo"},"geometry":{"type":"Point","coordinates":[15.6419155,-0.7264327]}},{"type":"Feature","id":"node/432425064","properties":{"name:en":"Romania"},"geometry":{"type":"Point","coordinates":[24.6859225,45.9852129]}},{"type":"Feature","id":"node/432425070","properties":{"name:en":"Saint Vincent and the Grenadines"},"geometry":{"type":"Point","coordinates":[-61.2765569,12.90447]}},{"type":"Feature","id":"node/432425075","properties":{"name:en":"Senegal"},"geometry":{"type":"Point","coordinates":[-14.4529612,14.4750607]}},{"type":"Feature","id":"node/432425079","properties":{"name:en":"Slovakia"},"geometry":{"type":"Point","coordinates":[19.4528646,48.7411522]}},{"type":"Feature","id":"node/432425087","properties":{"name:en":"Suriname"},"geometry":{"type":"Point","coordinates":[-56.0771187,4.1413025]}},{"type":"Feature","id":"node/432425099","properties":{"name:en":"Taiwan"},"geometry":{"type":"Point","coordinates":[120.9820179,23.9739374]}},{"type":"Feature","id":"node/432425116","properties":{"name:en":"Uruguay"},"geometry":{"type":"Point","coordinates":[-56.0201525,-32.8755548]}},{"type":"Feature","id":"node/432425123","properties":{"name:en":"Zambia"},"geometry":{"type":"Point","coordinates":[27.5599164,-14.5186239]}},{"type":"Feature","id":"node/433483517","properties":{"name:en":"Anguilla"},"geometry":{"type":"Point","coordinates":[-63.0750234,18.1954947]}},{"type":"Feature","id":"node/433483519","properties":{"name:en":"Bermuda"},"geometry":{"type":"Point","coordinates":[-64.7603583,32.3018217]}},{"type":"Feature","id":"node/433483540","properties":{"name:en":"Jersey"},"geometry":{"type":"Point","coordinates":[-2.1358386,49.2214561]}},{"type":"Feature","id":"node/433483552","properties":{"name:en":"Niue"},"geometry":{"type":"Point","coordinates":[-169.8613411,-19.0536414]}},{"type":"Feature","id":"node/433483572","properties":{"name:en":"Tokelau"},"geometry":{"type":"Point","coordinates":[-171.8196878,-9.1676396]}},{"type":"Feature","id":"node/435981993","properties":{"name:en":"Democratic Republic of the Congo"},"geometry":{"type":"Point","coordinates":[23.8222636,-2.9814344]}},{"type":"Feature","id":"node/437146363","properties":{"name:en":"Thailand"},"geometry":{"type":"Point","coordinates":[100.83273,14.8971921]}},{"type":"Feature","id":"node/445970763","properties":{"name:en":"Montenegro"},"geometry":{"type":"Point","coordinates":[19.291739,43.0285558]}},{"type":"Feature","id":"node/466507355","properties":{"name:en":"Abkhazia"},"geometry":{"type":"Point","coordinates":[41.2299786,43.1500226]}},{"type":"Feature","id":"node/506532878","properties":{"name:en":"Antarctica"},"geometry":{"type":"Point","coordinates":[34.378236,-82.108182]}},{"type":"Feature","id":"node/506535828","properties":{"name:en":"American Samoa"},"geometry":{"type":"Point","coordinates":[-170.692511,-14.289304]}},{"type":"Feature","id":"node/607976629","properties":{"name:en":"Guam"},"geometry":{"type":"Point","coordinates":[144.8970036,13.5394645]}},{"type":"Feature","id":"node/823750101","properties":{"name:en":"Solomon Islands"},"geometry":{"type":"Point","coordinates":[162.8288542,-9.7354344]}},{"type":"Feature","id":"node/838090640","properties":{"name:en":"United Kingdom"},"geometry":{"type":"Point","coordinates":[-3.2765753,54.7023545]}},{"type":"Feature","id":"node/1356260631","properties":{"name:en":"South Sudan"},"geometry":{"type":"Point","coordinates":[29.6667897,7.8699431]}},{"type":"Feature","id":"node/1363947712","properties":{"name:en":"France"},"geometry":{"type":"Point","coordinates":[1.8883335,46.603354]}},{"type":"Feature","id":"node/1388794217","properties":{"name:en":"Pitcairn"},"geometry":{"type":"Point","coordinates":[-130.1017823,-25.0657719]}},{"type":"Feature","id":"node/1420871007","properties":{"name:en":"Ireland"},"geometry":{"type":"Point","coordinates":[-7.9794599,52.865196]}},{"type":"Feature","id":"node/1504546320","properties":{"name:en":"Switzerland"},"geometry":{"type":"Point","coordinates":[8.2319736,46.7985624]}},{"type":"Feature","id":"node/1511934680","properties":{"name:en":"Palau"},"geometry":{"type":"Point","coordinates":[133.313631,6.097367]}},{"type":"Feature","id":"node/1529444079","properties":{"name:en":"Sāmoa"},"geometry":{"type":"Point","coordinates":[-172.1200508,-13.7693895]}},{"type":"Feature","id":"node/1602889766","properties":{"name:en":"Isle of Man"},"geometry":{"type":"Point","coordinates":[-4.5591148,54.1936805]}},{"type":"Feature","id":"node/1602894836","properties":{"name:en":"Saint Helena, Ascension and Tristan da Cunha"},"geometry":{"type":"Point","coordinates":[-4.9721717,-16.6754836]}},{"type":"Feature","id":"node/1607605918","properties":{"name:en":"Guernsey"},"geometry":{"type":"Point","coordinates":[-2.484854,49.580437]}},{"type":"Feature","id":"node/1640880787","properties":{"name:en":"Zimbabwe"},"geometry":{"type":"Point","coordinates":[29.7468414,-18.4554963]}},{"type":"Feature","id":"node/1644732479","properties":{"name:en":"Guatemala"},"geometry":{"type":"Point","coordinates":[-89.8988087,15.6356088]}},{"type":"Feature","id":"node/1644764586","properties":{"name:en":"Paraguay"},"geometry":{"type":"Point","coordinates":[-58.1693445,-23.3165935]}},{"type":"Feature","id":"node/1648342273","properties":{"name:en":"Ukraine"},"geometry":{"type":"Point","coordinates":[31.2718321,49.4871968]}},{"type":"Feature","id":"node/1683325355","properties":{"name:en":"Germany"},"geometry":{"type":"Point","coordinates":[10.4234469,51.0834196]}},{"type":"Feature","id":"node/1684793666","properties":{"name:en":"Belgium"},"geometry":{"type":"Point","coordinates":[4.66696,50.6407351]}},{"type":"Feature","id":"node/1694010854","properties":{"name:en":"Brunei"},"geometry":{"type":"Point","coordinates":[114.5653908,4.4137155]}},{"type":"Feature","id":"node/1696850886","properties":{"name:en":"South Ossetia"},"geometry":{"type":"Point","coordinates":[44.0979465,42.3476344]}},{"type":"Feature","id":"node/1696853468","properties":{"name:en":"Nagorno-Karabakh Republic"},"geometry":{"type":"Point","coordinates":[46.6977209,39.8079192]}},{"type":"Feature","id":"node/1696874354","properties":{"name:en":"Turkish Republic Of Northern Cyprus"},"geometry":{"type":"Point","coordinates":[33.6252379,35.2245313]}},{"type":"Feature","id":"node/1700777271","properties":{"name:en":"Kyrgyzstan"},"geometry":{"type":"Point","coordinates":[74.724091,41.5089324]}},{"type":"Feature","id":"node/1708980402","properties":{"name:en":"Mauritius"},"geometry":{"type":"Point","coordinates":[57.5703566,-20.2759451]}},{"type":"Feature","id":"node/1770467684","properties":{"name:en":"Aruba"},"geometry":{"type":"Point","coordinates":[-69.9618475,12.5013629]}},{"type":"Feature","id":"node/1983711862","properties":{"name:en":"Bosnia and Herzegovina"},"geometry":{"type":"Point","coordinates":[17.5961467,44.3053476]}},{"type":"Feature","id":"node/2043451343","properties":{"name:en":"Transnistria"},"geometry":{"type":"Point","coordinates":[29.397413,47.192292]}},{"type":"Feature","id":"node/2110225115","properties":{"name:en":"Palestine"},"geometry":{"type":"Point","coordinates":[35.162072,31.649741]}},{"type":"Feature","id":"node/2134362766","properties":{"name:en":"Malaysia"},"geometry":{"type":"Point","coordinates":[112.8471939,2.3923759]}},{"type":"Feature","id":"node/2163914205","properties":{"name:en":"Ethiopia"},"geometry":{"type":"Point","coordinates":[38.6521203,10.2116702]}},{"type":"Feature","id":"node/2377028247","properties":{"name:en":"Portugal"},"geometry":{"type":"Point","coordinates":[-7.8896263,40.033265]}},{"type":"Feature","id":"node/2621901768","properties":{"name:en":"Sahrawi Arab Democratic Republic"},"geometry":{"type":"Point","coordinates":[-12.7385445,23.8567121]}},{"type":"Feature","id":"node/3491215388","properties":{"name:en":"Lesotho"},"geometry":{"type":"Point","coordinates":[28.3350193,-29.6039267]}},{"type":"Feature","id":"node/3696525426","properties":{},"geometry":{"type":"Point","coordinates":[9.5531527,47.1416307]}}]}